{
    "links": {
        "self": "http://www.neowsapp.com/rest/v1/neo/3788027?api_key=iIulBulltgU6a56xZRHN4H3l9WmuAYTsLGpBGhQ2"
    },
    "id": "3788027",
    "neo_reference_id": "3788027",
    "name": "(2017 UL5)",
    "designation": "2017 UL5",
    "nasa_jpl_url": "http://ssd.jpl.nasa.gov/sbdb.cgi?sstr=3788027",
    "absolute_magnitude_h": 26.4,
    "estimated_diameter": {
        "kilometers": {
            "estimated_diameter_min": 0.0139493823,
            "estimated_diameter_max": 0.0311917671
        },
        "meters": {
            "estimated_diameter_min": 13.9493822934,
            "estimated_diameter_max": 31.1917670523
        },
        "miles": {
            "estimated_diameter_min": 0.0086677416,
            "estimated_diameter_max": 0.0193816595
        },
        "feet": {
            "estimated_diameter_min": 45.7656914036,
            "estimated_diameter_max": 102.3351970157
        }
    },
    "is_potentially_hazardous_asteroid": false,
    "close_approach_data": [
        {
            "close_approach_date": "2017-10-19",
            "close_approach_date_full": "2017-Oct-19 03:08",
            "epoch_date_close_approach": 1508382480000,
            "relative_velocity": {
                "kilometers_per_second": "8.9409896894",
                "kilometers_per_hour": "32187.5628818203",
                "miles_per_hour": "20000.0998362066"
            },
            "miss_distance": {
                "astronomical": "0.0060794959",
                "lunar": "2.3649239051",
                "kilometers": "909479.637313733",
                "miles": "565124.4414581954"
            },
            "orbiting_body": "Moon"
        },
        {
            "close_approach_date": "2017-10-19",
            "close_approach_date_full": "2017-Oct-19 05:38",
            "epoch_date_close_approach": 1508391480000,
            "relative_velocity": {
                "kilometers_per_second": "7.981875225",
                "kilometers_per_hour": "28734.7508098339",
                "miles_per_hour": "17854.6566906993"
            },
            "miss_distance": {
                "astronomical": "0.0072573535",
                "lunar": "2.8231105115",
                "kilometers": "1085684.625437045",
                "miles": "674613.144019421"
            },
            "orbiting_body": "Earth"
        }
    ],
    "orbital_data": {
        "orbit_id": "4",
        "orbit_determination_date": "2017-11-01 06:52:47",
        "first_observation_date": "2017-10-22",
        "last_observation_date": "2017-10-31",
        "data_arc_in_days": 9,
        "observations_used": 39,
        "orbit_uncertainty": "8",
        "minimum_orbit_intersection": ".00124093",
        "jupiter_tisserand_invariant": "3.388",
        "epoch_osculation": "2458052.5",
        "eccentricity": ".56285682469214",
        "semi_major_axis": "2.26275811923656",
        "inclination": "3.398395586720851",
        "ascending_node_longitude": "30.98907593692037",
        "orbital_period": "1243.241860902005",
        "perihelion_distance": ".989149269196711",
        "perihelion_argument": "348.116529880173",
        "aphelion_distance": "3.536366969276409",
        "perihelion_time": "2458040.271010878419",
        "mean_anomaly": "3.541093830749133",
        "mean_motion": ".2895655393543542",
        "equinox": "J2000",
        "orbit_class": {
            "orbit_class_type": "APO",
            "orbit_class_description": "Near-Earth asteroid orbits which cross the Earth’s orbit similar to that of 1862 Apollo",
            "orbit_class_range": "a (semi-major axis) > 1.0 AU; q (perihelion) < 1.017 AU"
        }
    },
    "is_sentry_object": false
}